     2.01           GLONASS NAV DATA                        RINEX VERSION / TYPE
CCRINEXG V1.4 UX    CDDIS               18-DEC-15 15:37     PGM / RUN BY / DATE 
IGS BROADCAST EPHEMERIS FILE                                COMMENT             
teqc  2013Mar15     GPS Operator        20151218  0:05:     COMMENT             
  2015    12    17    0.256113708019D-07                    CORR TO SYSTEM TIME 
    17                                                      LEAP SECONDS        
                                                            END OF HEADER       
 1 15 12 17 12 15  0.0-0.147636979818D-03 0.000000000000D+00 0.444300000000D+05
    0.685651025391D+04 0.195182800293D+00-0.931322574616D-09 0.000000000000D+00
   -0.238215434570D+05-0.806101799011D+00-0.186264514923D-08 0.100000000000D+01
   -0.598499267578D+04 0.343637084961D+01 0.000000000000D+00 0.000000000000D+00
 2 15 12 17 12 15  0.0 0.167015008628D-03 0.909494701773D-12 0.432000000000D+05
   -0.411820068359D+04 0.101939678192D+01 0.000000000000D+00 0.000000000000D+00
   -0.148634184570D+05-0.259360408783D+01-0.931322574616D-09-0.400000000000D+01
   -0.202995395508D+05 0.168644905090D+01 0.186264514923D-08 0.000000000000D+00
 3 15 12 17 12 15  0.0 0.577010214329D-04 0.000000000000D+00 0.432000000000D+05
   -0.125935083008D+05 0.122914791107D+01 0.931322574616D-09 0.000000000000D+00
    0.274694628906D+04-0.275610733032D+01-0.000000000000D+00 0.500000000000D+01
   -0.219764492188D+05-0.104997348785D+01 0.279396772385D-08 0.000000000000D+00
 4 15 12 17 12 15  0.0 0.149516388774D-03 0.909494701773D-12 0.432000000000D+05
   -0.135108833008D+05 0.693017959595D+00 0.186264514923D-08 0.000000000000D+00
    0.189121015625D+05-0.126786231995D+01 0.931322574616D-09 0.600000000000D+01
   -0.104916474609D+05-0.317629623413D+01 0.931322574616D-09 0.000000000000D+00
 5 15 12 17 12 15  0.0 0.438932329416D-05 0.000000000000D+00 0.432000000000D+05
   -0.648666699219D+04-0.227568626404D+00 0.931322574616D-09 0.000000000000D+00
    0.237732534180D+05 0.884900093079D+00 0.186264514923D-08 0.100000000000D+01
    0.659033593750D+04-0.340752410889D+01-0.931322574616D-09 0.000000000000D+00
 6 15 12 17 12 15  0.0 0.802697613835D-04 0.000000000000D+00 0.432300000000D+05
    0.489794482422D+04-0.103713989258D+01 0.000000000000D+00 0.000000000000D+00
    0.141663833008D+05 0.263037395477D+01 0.931322574616D-09-0.400000000000D+01
    0.206120249023D+05-0.156255435944D+01-0.279396772385D-08 0.000000000000D+00
 7 15 12 17 12 15  0.0-0.458490103483D-05 0.000000000000D+00 0.439800000000D+05
    0.126930322266D+05-0.122773075104D+01-0.931322574616D-09 0.000000000000D+00
   -0.300838867188D+04 0.273533248901D+01 0.000000000000D+00 0.500000000000D+01
    0.219497563477D+05 0.108394050598D+01-0.279396772385D-08 0.000000000000D+00
 8 15 12 17 12 15  0.0-0.270130112767D-04 0.000000000000D+00 0.432000000000D+05
    0.136615781250D+05-0.718370437622D+00-0.186264514923D-08 0.000000000000D+00
   -0.185417543945D+05 0.132216358185D+01-0.931322574616D-09 0.600000000000D+01
    0.109940981445D+05 0.313607215881D+01-0.931322574616D-09 0.000000000000D+00
 9 15 12 17 12 15  0.0 0.219652429223D-04 0.000000000000D+00 0.432300000000D+05
    0.156156328125D+05 0.240558624268D+00 0.931322574616D-09 0.000000000000D+00
    0.200637841797D+05 0.267686843872D-01 0.372529029846D-08-0.200000000000D+01
   -0.121596191406D+04 0.358351421356D+01-0.931322574616D-09 0.000000000000D+00
10 15 12 17 12 15  0.0 0.317022204399D-05 0.909494701773D-12 0.432300000000D+05
    0.165195190430D+05 0.150130939484D+01 0.931322574616D-09 0.000000000000D+00
    0.964054248047D+04 0.177087879181D+01 0.279396772385D-08-0.700000000000D+01
   -0.169303828125D+05 0.246814060211D+01 0.000000000000D+00 0.000000000000D+00
11 15 12 17 12 15  0.0 0.202432274818D-04 0.000000000000D+00 0.432000000000D+05
    0.801488964844D+04 0.189587306976D+01 0.000000000000D+00 0.000000000000D+00
   -0.704215722656D+04 0.254788875580D+01 0.000000000000D+00 0.000000000000D+00
   -0.231657207031D+05-0.110892295837D+00 0.186264514923D-08 0.000000000000D+00
12 15 12 17 12 15  0.0 0.293804332614D-04 0.000000000000D+00 0.432000000000D+05
   -0.525524462891D+04 0.117858695984D+01-0.000000000000D+00 0.000000000000D+00
   -0.193676547852D+05 0.180058479309D+01-0.186264514923D-08-0.100000000000D+01
   -0.156651347656D+05-0.263926696777D+01 0.186264514923D-08 0.000000000000D+00
13 15 12 17 12 15  0.0 0.126510858536D-04-0.000000000000D+00 0.432000000000D+05
   -0.158093002930D+05-0.288251876831D+00-0.931322574616D-09 0.000000000000D+00
   -0.199629204102D+05-0.355625152588D-01-0.279396772385D-08-0.200000000000D+01
    0.145872265625D+04-0.358527183533D+01 0.931322574616D-09 0.000000000000D+00
14 15 12 17 12 15  0.0 0.256931409240D-03 0.363797880709D-11 0.432000000000D+05
   -0.161623095703D+05-0.156374549866D+01-0.931322574616D-09 0.000000000000D+00
   -0.845975146484D+04-0.188364887238D+01-0.186264514923D-08-0.700000000000D+01
    0.177814633789D+05-0.232227134705D+01-0.000000000000D+00 0.000000000000D+00
15 15 12 17 12 15  0.0 0.598635524511D-04 0.909494701773D-12 0.432000000000D+05
   -0.880660009766D+04-0.189120769501D+01-0.931322574616D-09 0.000000000000D+00
    0.574427148438D+04-0.256168365478D+01-0.931322574616D-09 0.000000000000D+00
    0.232562241211D+05-0.741653442383D-01-0.186264514923D-08 0.000000000000D+00
16 15 12 17 12 15  0.0 0.256430357695D-04 0.909494701773D-12 0.432300000000D+05
    0.616404101562D+04-0.109429073334D+01 0.000000000000D+00 0.000000000000D+00
    0.198730913086D+05-0.171301746368D+01 0.186264514923D-08-0.100000000000D+01
    0.147895610352D+05 0.274528121948D+01-0.279396772385D-08 0.000000000000D+00
18 15 12 17 12 15  0.0 0.807913020253D-04 0.909494701773D-12 0.432000000000D+05
   -0.215092592773D+05-0.152462005615D+01 0.931322574616D-09 0.000000000000D+00
    0.766101904297D+04 0.333395957947D+00-0.000000000000D+00-0.300000000000D+01
   -0.112962187500D+05 0.313091850281D+01 0.186264514923D-08 0.000000000000D+00
19 15 12 17 12 15  0.0-0.143377110362D-03-0.909494701773D-12 0.435000000000D+05
   -0.462766601562D+04-0.307800102234D+01 0.186264514923D-08 0.000000000000D+00
    0.108936079102D+05 0.339914321899D+00 0.931322574616D-09 0.300000000000D+01
   -0.225957749023D+05 0.793516159058D+00 0.279396772385D-08 0.000000000000D+00
20 15 12 17 12 15  0.0-0.209935940802D-03-0.909494701773D-12 0.432300000000D+05
    0.147076186523D+05-0.266016674042D+01 0.931322574616D-09 0.000000000000D+00
    0.759050537109D+04 0.135044097900D+00 0.186264514923D-08 0.200000000000D+01
   -0.194208745117D+05-0.195682716370D+01 0.931322574616D-09 0.000000000000D+00
21 15 12 17 12 15  0.0 0.427560880780D-04 0.181898940355D-11 0.432300000000D+05
    0.247953471680D+05-0.826163291931D+00 0.000000000000D+00 0.000000000000D+00
    0.553500976562D+02-0.910358428955D-01 0.186264514923D-08 0.400000000000D+01
   -0.591600634766D+04-0.346557140350D+01 0.000000000000D+00 0.000000000000D+00
22 15 12 17 12 15  0.0 0.185402110219D-03 0.181898940355D-11 0.432300000000D+05
    0.213992094727D+05 0.156044578552D+01-0.931322574616D-09 0.000000000000D+00
   -0.776899804688D+04-0.354961395264D+00 0.000000000000D+00-0.300000000000D+01
    0.116407099609D+05-0.309430313110D+01-0.186264514923D-08 0.000000000000D+00
23 15 12 17 12 15  0.0-0.602081418037D-04-0.363797880709D-11 0.432000000000D+05
    0.431095800781D+04 0.307477378845D+01-0.186264514923D-08 0.000000000000D+00
   -0.109998769531D+05-0.383263587952D+00-0.931322574616D-09 0.300000000000D+01
    0.225995698242D+05-0.773330688477D+00-0.186264514923D-08 0.000000000000D+00
24 15 12 17 12 15  0.0-0.131907872856D-03-0.000000000000D+00 0.432000000000D+05
   -0.135850263672D+05 0.275225639343D+01-0.931322574616D-09 0.000000000000D+00
   -0.785070263672D+04-0.204152107239D+00-0.186264514923D-08 0.200000000000D+01
    0.200877792969D+05 0.177964210510D+01-0.931322574616D-09 0.000000000000D+00
 1 15 12 17 12 45  0.0-0.147636979818D-03 0.000000000000D+00 0.450000000000D+05
    0.686975585938D+04-0.144674301147D+00-0.186264514923D-08 0.000000000000D+00
   -0.245540468750D+05 0.112867355347D-01-0.186264514923D-08 0.100000000000D+01
    0.352092773438D+03 0.355906677246D+01-0.000000000000D+00 0.000000000000D+00
 2 15 12 17 12 45  0.0 0.167017802596D-03 0.909494701773D-12 0.450000000000D+05
   -0.276304101562D+04 0.495311737061D+00-0.000000000000D+00 0.000000000000D+00
   -0.192337377930D+05-0.221481800079D+01-0.186264514923D-08-0.400000000000D+01
   -0.165174873047D+05 0.248839187622D+01 0.186264514923D-08 0.000000000000D+00
 3 15 12 17 12 45  0.0 0.577019527555D-04 0.000000000000D+00 0.464700000000D+05
   -0.106976928711D+05 0.854206085205D+00 0.000000000000D+00 0.000000000000D+00
   -0.250931201172D+04-0.303805446625D+01-0.931322574616D-09 0.500000000000D+01
   -0.229895253906D+05-0.683965682983D-01 0.279396772385D-08 0.000000000000D+00
 4 15 12 17 12 45  0.0 0.149518251419D-03 0.909494701773D-12 0.450000000000D+05
   -0.122293730469D+05 0.689538955688D+00 0.186264514923D-08 0.000000000000D+00
    0.159147880859D+05-0.204546451569D+01 0.000000000000D+00 0.600000000000D+01
   -0.157290454102D+05-0.260521125794D+01 0.186264514923D-08 0.000000000000D+00
 5 15 12 17 12 45  0.0 0.438746064901D-05 0.000000000000D+00 0.450000000000D+05
   -0.654979736328D+04 0.122219085693D+00 0.186264514923D-08 0.000000000000D+00
    0.246555581055D+05 0.752000808716D-01 0.186264514923D-08 0.100000000000D+01
    0.281257324219D+03-0.355703639984D+01 0.000000000000D+00 0.000000000000D+00
 6 15 12 17 12 45  0.0 0.802706927061D-04 0.000000000000D+00 0.450300000000D+05
    0.349822607422D+04-0.525633811951D+00 0.931322574616D-09 0.000000000000D+00
    0.186277563477D+05 0.227907180786D+01 0.186264514923D-08-0.400000000000D+01
    0.170369936523D+05-0.238386917114D+01-0.186264514923D-08 0.000000000000D+00
